      2.10          N: GNSS NAV DATA                        RINEX VERSION / TYPE
fic2rin                                 12/04/2018 00:18:43 PGM / RUN BY / DATE
                                                            END OF HEADER
20 18 12  3 16  0  0.0 5.194898694754e-04 4.547473508865e-13 0.000000000000e+00
    1.600000000000e+01-2.006250000000e+01 5.800241603344e-09-1.090989566975e+00
   -1.067295670509e-06 4.483558004722e-03 4.783272743225e-06 5.153661922455e+03
    1.440000000000e+05-5.774199962616e-08 1.079733945493e+00 0.000000000000e+00
    9.291273660214e-01 2.735000000000e+02 2.186110806667e+00-8.782508683882e-09
    4.214461263514e-11 1.000000000000e+00 2.030000000000e+03 0.000000000000e+00
    2.400000000000e+00 0.000000000000e+00-8.381903171539e-09 1.600000000000e+01
    1.368060000000e+05 4.000000000000e+00
28 18 12  3 16  0  0.0 7.570805028081e-04 1.477928890381e-12 0.000000000000e+00
    2.000000000000e+01-3.093750000000e+01 4.017667351972e-09 2.175471920726e+00
   -1.803040504456e-06 1.963564660400e-02 2.477318048477e-06 5.153695692062e+03
    1.440000000000e+05 2.551823854446e-07-1.858149366831e+00-1.024454832077e-07
    9.838169770003e-01 3.389062500000e+02-1.493324234674e+00-7.834969215059e-09
   -2.785830326729e-10 1.000000000000e+00 2.030000000000e+03 0.000000000000e+00
    2.400000000000e+00 0.000000000000e+00-1.117587089539e-08 2.000000000000e+01
    1.368060000000e+05 4.000000000000e+00
22 18 12  3 16  0  0.0-5.895984359086e-04-9.436007530894e-12 0.000000000000e+00
    5.700000000000e+01-2.109375000000e+01 5.982392047784e-09 5.256851405990e-01
   -1.117587089539e-06 6.992273963988e-03 4.438683390617e-06 5.153634037018e+03
    1.440000000000e+05-5.401670932770e-08 1.129009448804e+00-4.097819328308e-08
    9.258285442693e-01 2.796562500000e+02-1.452968556898e+00-8.957158815904e-09
   -1.071473202588e-11 1.000000000000e+00 2.030000000000e+03 0.000000000000e+00
    2.400000000000e+00 0.000000000000e+00-1.816079020500e-08 5.700000000000e+01
    1.368060000000e+05 4.000000000000e+00
24 18 12  3 16  0  0.0-5.903327837586e-05-5.684341886081e-13 0.000000000000e+00
    4.100000000000e+01 1.081875000000e+02 5.041638575912e-09-5.098979899265e-01
    5.537644028664e-06 7.768128532916e-03 7.342547178268e-06 5.153617813110e+03
    1.440000000000e+05 1.527369022369e-07-3.040771612114e+00 1.080334186554e-07
    9.404307473897e-01 2.265625000000e+02 5.542990384941e-01-8.502497020272e-09
    1.632210845276e-10 1.000000000000e+00 2.030000000000e+03 0.000000000000e+00
    2.400000000000e+00 0.000000000000e+00 2.793967723846e-09 4.100000000000e+01
    1.368060000000e+05 4.000000000000e+00
27 18 12  3 16  0  0.0-2.684164792299e-05-5.570655048359e-12 0.000000000000e+00
    8.900000000000e+01-8.353125000000e+01 3.888376252193e-09 1.307706543821e+00
   -4.345551133156e-06 6.240955204703e-03 9.877607226372e-06 5.153706314087e+03
    1.440000000000e+05-3.725290298462e-08-9.023048566648e-01 4.470348358154e-08
    9.782565482662e-01 1.989375000000e+02 4.307797141271e-01-7.827826060376e-09
   -1.989368579472e-10 1.000000000000e+00 2.030000000000e+03 0.000000000000e+00
    3.400000000000e+00 0.000000000000e+00 1.862645149231e-09 8.900000000000e+01
    1.368060000000e+05 4.000000000000e+00
30 18 12  3 16  0  0.0-1.415936276317e-05-5.798028723802e-12 0.000000000000e+00
    8.000000000000e+01 1.109687500000e+02 4.892703800752e-09-1.536468943824e+00
    5.671754479408e-06 3.560726414435e-03 6.876885890961e-06 5.153659933090e+03
    1.440000000000e+05-2.048909664154e-08-2.947052277197e+00-4.097819328308e-08
    9.428233747780e-01 2.380937500000e+02-2.989923204154e+00-8.308917528338e-09
    2.089372745047e-10 1.000000000000e+00 2.030000000000e+03 0.000000000000e+00
    2.400000000000e+00 0.000000000000e+00 3.725290298462e-09 8.000000000000e+01
    1.368060000000e+05 4.000000000000e+00
23 18 12  3 16  0  0.0-2.045570872724e-04 1.023181539495e-12 0.000000000000e+00
    8.100000000000e+01-1.165625000000e+01 4.940920094869e-09-1.060589523639e-01
   -5.625188350677e-07 1.263133692555e-02 1.081824302673e-05 5.153688356400e+03
    1.440000000000e+05-3.539025783539e-08 2.225466092784e+00 1.527369022369e-07
    9.432750068474e-01 1.613437500000e+02-2.316273641409e+00-8.369991500885e-09
   -4.218032840856e-10 1.000000000000e+00 2.030000000000e+03 0.000000000000e+00
    2.400000000000e+00 0.000000000000e+00-2.002343535423e-08 8.100000000000e+01
    1.368060000000e+05 4.000000000000e+00
17 18 12  3 16  0  0.0-2.346234396100e-05 5.002220859751e-12 0.000000000000e+00
    5.000000000000e+01-7.518750000000e+01 3.722655063526e-09 1.292197844976e+00
   -3.967434167862e-06 1.293100905605e-02 1.037679612637e-05 5.153659662247e+03
    1.440000000000e+05-2.309679985046e-07-8.471661839634e-01-2.067536115646e-07
    9.836972371555e-01 1.928437500000e+02-1.754906615156e+00-7.824968798502e-09
   -7.464596644698e-11 1.000000000000e+00 2.030000000000e+03 0.000000000000e+00
    2.400000000000e+00 0.000000000000e+00-1.117587089539e-08 5.000000000000e+01
    1.368060000000e+05 4.000000000000e+00
19 18 12  3 16  0  0.0-3.775763325393e-04 3.865352482535e-12 0.000000000000e+00
    5.000000000000e+01-5.753125000000e+01 3.763013887490e-09-2.228155995367e+00
   -3.023073077202e-06 9.423588286154e-03 1.030974090099e-05 5.153614521027e+03
    1.440000000000e+05 1.173466444016e-07-8.005671536468e-01-1.862645149231e-09
    9.814091147832e-01 1.850937500000e+02 1.318317625541e+00-7.543528503955e-09
    3.678724662220e-11 1.000000000000e+00 2.030000000000e+03 0.000000000000e+00
    2.400000000000e+00 0.000000000000e+00-1.536682248116e-08 5.000000000000e+01
    1.368060000000e+05 4.000000000000e+00
32 18 12  3 16  0  0.0-3.333589993417e-04 1.500666257925e-11 0.000000000000e+00
    6.000000000000e+01-1.225000000000e+01 4.496258715795e-09 2.082952681877e+00
   -5.923211574554e-07 2.345001441427e-03 1.192279160023e-05 5.153736301422e+03
    1.440000000000e+05-8.940696716309e-08 2.234764496649e+00-9.313225746155e-09
    9.567874910680e-01 1.474375000000e+02-2.618019457602e+00-7.949616847736e-09
   -4.082312901861e-10 1.000000000000e+00 2.030000000000e+03 0.000000000000e+00
    2.400000000000e+00 0.000000000000e+00 4.656612873077e-10 6.000000000000e+01
    1.368060000000e+05 4.000000000000e+00
21 18 12  3 16  0  0.0-2.937489189208e-04 6.593836587854e-12 0.000000000000e+00
    1.340000000000e+02 3.168750000000e+01 4.698052835615e-09-2.630519409406e+00
    1.538544893265e-06 2.451702335384e-02 8.631497621536e-06 5.153578310013e+03
    1.440000000000e+05 3.017485141754e-07 9.363726082491e-02 1.806765794754e-07
    9.465740729067e-01 1.957187500000e+02-1.507491348403e+00-7.749965674321e-09
    7.311018818994e-10 1.000000000000e+00 2.030000000000e+03 0.000000000000e+00
    3.400000000000e+00 0.000000000000e+00-9.778887033463e-09 1.340000000000e+02
    1.368060000000e+05 4.000000000000e+00
26 18 12  3 16  0  0.0 5.723629146814e-05 1.091393642128e-11 0.000000000000e+00
    8.600000000000e+01-1.015625000000e+01 4.964135347591e-09-3.093720634385e+00
   -5.066394805908e-07 3.297697869129e-03 2.084299921989e-06 5.153757709503e+03
    1.440000000000e+05-3.725290298462e-09-1.968725138744e+00 3.911554813385e-08
    9.534983055574e-01 3.376562500000e+02 5.169860474583e-02-8.582500352732e-09
   -1.428630936784e-10 1.000000000000e+00 2.030000000000e+03 0.000000000000e+00
    2.400000000000e+00 0.000000000000e+00 7.450580596924e-09 8.600000000000e+01
    1.368060000000e+05 4.000000000000e+00
21 18 12  3 15 59 44.0-2.937489189208e-04 6.593836587854e-12 0.000000000000e+00
    2.100000000000e+01 3.168750000000e+01 4.698052835615e-09-2.632853307948e+00
    1.538544893265e-06 2.451702614781e-02 8.631497621536e-06 5.153578311920e+03
    1.439840000000e+05 3.017485141754e-07 9.363738956170e-02 1.806765794754e-07
    9.465740553517e-01 1.957187500000e+02-1.507491257702e+00-7.749965674321e-09
    7.311018818994e-10 1.000000000000e+00 2.030000000000e+03 0.000000000000e+00
    2.400000000000e+00 0.000000000000e+00-9.778887033463e-09 2.100000000000e+01
    1.378560000000e+05 4.000000000000e+00
27 18 12  3 15 59 44.0-2.684211358428e-05-5.570655048359e-12 0.000000000000e+00
    2.700000000000e+01-8.353125000000e+01 3.888376252193e-09 1.305373073914e+00
   -4.345551133156e-06 6.240964401513e-03 9.877607226372e-06 5.153706317902e+03
    1.439840000000e+05-3.725290298462e-08-9.023047191505e-01 4.470348358154e-08
    9.782565570437e-01 1.989375000000e+02 4.307795020039e-01-7.827826060376e-09
   -1.989368579472e-10 1.000000000000e+00 2.030000000000e+03 0.000000000000e+00
    2.400000000000e+00 0.000000000000e+00 1.862645149231e-09 2.700000000000e+01
    1.389360000000e+05 4.000000000000e+00
14 18 12  3 15 59 44.0-9.510153904557e-05 4.547473508865e-13 0.000000000000e+00
    3.000000000000e+00-8.468750000000e+00 4.409112228651e-09 1.045569239013e+00
   -3.520399332047e-07 9.991616243497e-03 1.240335404873e-05 5.153659011841e+03
    1.439840000000e+05-1.750886440277e-07 2.320251868649e+00 2.607703208923e-08
    9.606915117890e-01 1.434062500000e+02-1.946471265495e+00-8.072121950566e-09
   -4.203746531488e-10 1.000000000000e+00 2.030000000000e+03 0.000000000000e+00
    2.400000000000e+00 0.000000000000e+00-9.778887033463e-09 3.000000000000e+00
    1.424160000000e+05 4.000000000000e+00
13 18 12  3 15 59 44.0-8.269865065813e-05 1.136868377216e-12 0.000000000000e+00
    3.000000000000e+00 1.781250000000e+01 4.283035548479e-09 1.539812506000e-01
    1.030042767525e-06 3.663278417662e-03 1.175701618195e-05 5.153672592163e+03
    1.439840000000e+05-3.725290298462e-09 2.363443432140e+00 1.303851604462e-08
    9.681703732565e-01 1.557500000000e+02 1.403220119968e+00-7.872827934884e-09
   -3.360854278785e-10 1.000000000000e+00 2.030000000000e+03 0.000000000000e+00
    2.400000000000e+00 0.000000000000e+00-1.117587089539e-08 3.000000000000e+00
    1.425960000000e+05 4.000000000000e+00
